OBJECT_NAME,OBJECT_ID,EPOCH,MEAN_MOTION,ECCENTRICITY,INCLINATION,RA_OF_ASC_NODE,ARG_OF_PERICENTER,MEAN_ANOMALY,EPHEMERIS_TYPE,CLASSIFICATION_TYPE,NORAD_CAT_ID,ELEMENT_SET_NO,REV_AT_EPOCH,BSTAR,MEAN_MOTION_DOT,MEAN_MOTION_DDOT
FENGYUN 3D,2017-072A,2026-07-01T04:07:26.017824,14.19742494,.0002212,99.0129,156.8473,39.5597,320.5740,0,U,43010,999,44697,.72244E-4,.107E-5,0
NOAA 20 (JPSS-1),2017-073A,2026-07-01T04:03:28.936224,14.19514284,.0000816,98.7773,121.5075,133.1891,226.9353,0,U,43013,999,44645,.52219E-4,.66E-6,0
GOES 17,2018-022A,2026-07-01T03:28:38.901216,1.00272167,.0000746,0.9707,85.4897,35.5302,120.8479,0,U,43226,999,3056,0,-.173E-5,0
SENTINEL-3B,2018-039A,2026-07-01T03:29:35.996064,14.26738783,.000081,98.6244,249.4773,116.7253,243.4011,0,U,43437,999,42611,.74094E-4,.136E-5,0
FENGYUN 2H,2018-050A,2026-07-01T02:25:50.966976,1.00269634,.0001764,3.0659,78.9176,121.7065,194.3062,0,U,43491,999,2957,0,-.121E-5,0
METOP-C,2018-087A,2026-07-01T01:48:10.628928,14.21515869,.0002126,98.6638,241.4245,111.8337,248.3067,0,U,43689,999,39680,.756E-4,.122E-5,0
GEO-KOMPSAT-2A,2018-100A,2026-06-30T16:23:50.119008,1.00270789,.00023641,0.0424,119.2731,332.3933,201.3042,0,U,43823,999,2776,0,-.333E-5,0
METEOR-M2 2,2019-038A,2026-07-01T05:22:02.482176,14.24370653,.000149,98.9144,169.7164,26.9421,333.1835,0,U,44387,999,36329,.18629E-3,.385E-5,0
ARKTIKA-M 1,2021-016A,2026-06-29T22:50:46.732128,2.00617895,.72928178,63.2520,55.7907,269.9910,14.5481,0,U,47719,999,3904,0,-.281E-5,0
FENGYUN 3E,2021-062A,2026-07-01T03:41:58.066656,14.19904629,.0002731,98.7488,185.4063,63.5131,296.6325,0,U,49008,999,25856,-.26661E-4,-.101E-5,0
GOES 18,2022-021A,2026-06-30T23:41:27.369312,1.00271117,.0000547,0.0175,129.7028,6.8545,0.8509,0,U,51850,999,673,0,.107E-5,0
NOAA 21 (JPSS-2),2022-150A,2026-07-01T03:08:49.105824,14.19538942,.0002393,98.7061,120.6861,129.6143,230.5244,0,U,54234,999,18852,.44731E-4,.51E-6,0
METEOSAT-12 (MTG-I1),2022-170C,2026-07-01T03:45:40.226112,1.00276135,.0003664,0.7533,25.1015,73.6731,236.5905,0,U,54743,999,1311,0,.4E-7,0
TIANMU-1 03,2023-039A,2026-07-01T05:04:38.176608,15.47678798,.0003727,97.5231,356.7333,64.0521,296.1112,0,U,55973,999,18300,.35708E-3,.18381E-3,0
TIANMU-1 04,2023-039B,2026-07-01T04:41:36.113568,15.48293519,.0004124,97.5172,355.8712,57.8570,302.3079,0,U,55974,999,18301,.37356E-3,.19654E-3,0
TIANMU-1 05,2023-039C,2026-07-01T04:37:55.214688,15.47605807,.0003768,97.5216,356.3235,80.8403,279.3273,0,U,55975,999,18298,.36894E-3,.18948E-3,0
TIANMU-1 06,2023-039D,2026-07-01T04:47:44.522304,15.48193490,.0003992,97.5223,356.9806,76.0463,284.1231,0,U,55976,999,18301,.37199E-3,.19502E-3,0
FENGYUN 3G,2023-055A,2026-07-01T04:45:23.726592,15.53242447,.0007228,49.9927,273.7980,354.7268,5.3622,0,U,56232,999,18218,.4566E-3,.28972E-3,0
METEOR-M2 3,2023-091A,2026-07-01T05:18:30.645792,14.24047984,.0004966,98.6075,236.9120,121.6541,238.5123,0,U,57166,999,15651,.26857E-4,.19E-6,0
TIANMU-1 07,2023-101A,2026-07-01T03:54:08.898336,15.29969138,.0004334,97.2583,232.5105,93.2126,266.9610,0,U,57399,999,16378,.25316E-3,.7273E-4,0
TIANMU-1 08,2023-101B,2026-07-01T04:40:14.239200,15.29973651,.0005523,97.2571,232.3104,81.7683,278.4184,0,U,57400,999,16378,.24401E-3,.7009E-4,0
TIANMU-1 09,2023-101C,2026-07-01T04:15:55.191168,15.30009683,.0004902,97.2529,231.7025,95.9563,264.2237,0,U,57401,999,16378,.26358E-3,.7586E-4,0
TIANMU-1 10,2023-101D,2026-07-01T03:29:41.802144,15.29981859,.0006391,97.2609,232.7359,90.7180,269.4793,0,U,57402,999,16377,.26238E-3,.7546E-4,0
FENGYUN 3F,2023-111A,2026-07-01T04:59:48.118848,14.19941404,.0001499,98.6832,251.9554,83.4248,276.7099,0,U,57490,999,15085,.46809E-4,.56E-6,0
ARKTIKA-M 2,2023-198A,2026-06-29T17:20:14.637696,2.00610643,.69058771,63.2199,152.9641,267.3845,18.7575,0,U,58584,999,1857,0,.148E-5,0
TIANMU-1 11,2023-205A,2026-07-01T03:24:19.634688,15.27136985,.000733,97.3437,203.4803,324.7423,35.3331,0,U,58645,999,13965,.24047E-3,.633E-4,0
TIANMU-1 12,2023-205B,2026-07-01T04:16:46.157664,15.27036006,.0005377,97.3425,203.2686,302.7499,57.3221,0,U,58646,999,13964,.24196E-3,.6348E-4,0
TIANMU-1 13,2023-205C,2026-07-01T03:30:22.637376,15.26957573,.0004943,97.3454,203.5121,277.4901,82.5777,0,U,58647,999,13963,.24546E-3,.6425E-4,0
TIANMU-1 14,2023-205D,2026-07-01T04:42:50.961024,15.27003460,.000577,97.3389,202.7324,284.1424,75.9173,0,U,58648,999,13964,.25364E-3,.6652E-4,0
TIANMU-1 19,2023-208A,2026-07-01T04:51:19.369728,15.31783588,.000356,97.4522,298.5757,259.2885,100.7956,0,U,58660,999,13947,.32365E-3,.9858E-4,0
TIANMU-1 20,2023-208B,2026-07-01T03:56:05.296416,15.32971930,.0005571,97.4464,299.1870,272.0665,87.9939,0,U,58661,999,13956,.29835E-3,.9428E-4,0
