FENGYUN 3D              
1 43010U 17072A   26182.17182891  .00000107  00000+0  72244-4 0  9991
2 43010  99.0129 156.8473 0002212  39.5597 320.5740 14.19742494446975
NOAA 20 (JPSS-1)        
1 43013U 17073A   26182.16908491  .00000066  00000+0  52219-4 0  9990
2 43013  98.7773 121.5075 0000816 133.1891 226.9353 14.19514284446458
GOES 17                 
1 43226U 18022A   26182.14489469 -.00000173  00000+0  00000+0 0  9994
2 43226   0.9707  85.4897 0000746  35.5302 120.8479  1.00272167 30569
SENTINEL-3B             
1 43437U 18039A   26182.14555551  .00000136  00000+0  74094-4 0  9999
2 43437  98.6244 249.4773 0000810 116.7253 243.4011 14.26738783426114
FENGYUN 2H              
1 43491U 18050A   26182.10128434 -.00000121  00000+0  00000+0 0  9990
2 43491   3.0659  78.9176 0001764 121.7065 194.3062  1.00269634 29573
METOP-C                 
1 43689U 18087A   26182.07512302  .00000122  00000+0  75600-4 0  9999
2 43689  98.6638 241.4245 0002126 111.8337 248.3067 14.21515869396807
GEO-KOMPSAT-2A          
1 43823U 18100A   26181.68321897 -.00000333  00000+0  00000+0 0  9990
2 43823   0.0424 119.2731 0002364 332.3933 201.3042  1.00270789 27765
METEOR-M2 2             
1 44387U 19038A   26182.22363984  .00000385  00000+0  18629-3 0  9997
2 44387  98.9144 169.7164 0001490  26.9421 333.1835 14.24370653363299
ARKTIKA-M 1             
1 47719U 21016A   26180.95192977 -.00000281  00000+0  00000+0 0  9994
2 47719  63.2520  55.7907 7292817 269.9910  14.5481  2.00617895 39040
FENGYUN 3E              
1 49008U 21062A   26182.15414429 -.00000101  00000+0 -26661-4 0  9999
2 49008  98.7488 185.4063 0002731  63.5131 296.6325 14.19904629258560
GOES 18                 
1 51850U 22021A   26181.98712233  .00000107  00000+0  00000+0 0  9995
2 51850   0.0175 129.7028 0000547   6.8545   0.8509  1.00271117  6735
NOAA 21 (JPSS-2)        
1 54234U 22150A   26182.13112391  .00000051  00000+0  44731-4 0  9996
2 54234  98.7061 120.6861 0002393 129.6143 230.5244 14.19538942188528
METEOSAT-12 (MTG-I1)    
1 54743U 22170C   26182.15671558  .00000004  00000+0  00000+0 0  9994
2 54743   0.7533  25.1015 0003664  73.6731 236.5905  1.00276135 13114
TIANMU-1 03             
1 55973U 23039A   26182.21155297  .00018381  00000+0  35708-3 0  9993
2 55973  97.5231 356.7333 0003727  64.0521 296.1112 15.47678798183001
TIANMU-1 04             
1 55974U 23039B   26182.19555687  .00019654  00000+0  37356-3 0  9993
2 55974  97.5172 355.8712 0004124  57.8570 302.3079 15.48293519183011
TIANMU-1 05             
1 55975U 23039C   26182.19300017  .00018948  00000+0  36894-3 0  9990
2 55975  97.5216 356.3235 0003768  80.8403 279.3273 15.47605807182981
TIANMU-1 06             
1 55976U 23039D   26182.19982086  .00019502  00000+0  37199-3 0  9999
2 55976  97.5223 356.9806 0003992  76.0463 284.1231 15.48193490183016
FENGYUN 3G              
1 56232U 23055A   26182.19819128  .00028972  00000+0  45660-3 0  9992
2 56232  49.9927 273.7980 0007228 354.7268   5.3622 15.53242447182185
METEOR-M2 3             
1 57166U 23091A   26182.22118803  .00000019  00000+0  26857-4 0  9995
2 57166  98.6075 236.9120 0004966 121.6541 238.5123 14.24047984156515
TIANMU-1 07             
1 57399U 23101A   26182.16260299  .00007273  00000+0  25316-3 0  9992
2 57399  97.2583 232.5105 0004334  93.2126 266.9610 15.29969138163782
TIANMU-1 08             
1 57400U 23101B   26182.19460925  .00007009  00000+0  24401-3 0  9997
2 57400  97.2571 232.3104 0005523  81.7683 278.4184 15.29973651163789
TIANMU-1 09             
1 57401U 23101C   26182.17772212  .00007586  00000+0  26358-3 0  9994
2 57401  97.2529 231.7025 0004902  95.9563 264.2237 15.30009683163781
TIANMU-1 10             
1 57402U 23101D   26182.14562271  .00007546  00000+0  26238-3 0  9997
2 57402  97.2609 232.7359 0006391  90.7180 269.4793 15.29981859163779
FENGYUN 3F              
1 57490U 23111A   26182.20819582  .00000056  00000+0  46809-4 0  9998
2 57490  98.6832 251.9554 0001499  83.4248 276.7099 14.19941404150852
ARKTIKA-M 2             
1 58584U 23198A   26180.72239164  .00000148  00000+0  00000+0 0  9995
2 58584  63.2199 152.9641 6905877 267.3845  18.7575  2.00610643 18573
TIANMU-1 11             
1 58645U 23205A   26182.14189392  .00006330  00000+0  24047-3 0  9997
2 58645  97.3437 203.4803 0007330 324.7423  35.3331 15.27136985139650
TIANMU-1 12             
1 58646U 23205B   26182.17831201  .00006348  00000+0  24196-3 0  9998
2 58646  97.3425 203.2686 0005377 302.7499  57.3221 15.27036006139647
TIANMU-1 13             
1 58647U 23205C   26182.14609534  .00006425  00000+0  24546-3 0  9993
2 58647  97.3454 203.5121 0004943 277.4901  82.5777 15.26957573139636
TIANMU-1 14             
1 58648U 23205D   26182.19642316  .00006652  00000+0  25364-3 0  9995
2 58648  97.3389 202.7324 0005770 284.1424  75.9173 15.27003460139649
TIANMU-1 19             
1 58660U 23208A   26182.20230752  .00009858  00000+0  32365-3 0  9991
2 58660  97.4522 298.5757 0003560 259.2885 100.7956 15.31783588139473
TIANMU-1 20             
1 58661U 23208B   26182.16395019  .00009428  00000+0  29835-3 0  9996
2 58661  97.4464 299.1870 0005571 272.0665  87.9939 15.32971930139563
